#aV2021  1 11  0  0  0.00000000     288 DD+AD WGS84 FIT  NGA
## 2140  86400.00000000   300.00000000 59225 0.0000000000000
+   32     1  2  3  4  5  6  7  8  9 10 11 12 13 14 15 16 17
+         18 19 20 21 22 23 24 25 26 27 28 29 30 31 32  0  0
+          0  0  0  0  0  0  0  0  0  0  0  0  0  0  0  0  0
+          0  0  0  0  0  0  0  0  0  0  0  0  0  0  0  0  0
+          0  0  0  0  0  0  0  0  0  0  0  0  0  0  0  0  0
++         2  2  2  2  2  2  2  2  2  2  2  2  2  2  2  2  2
++         2  2  2  2  2  2  2  2  2  2  2  2  2  2  2  0  0
++         0  0  0  0  0  0  0  0  0  0  0  0  0  0  0  0  0
++         0  0  0  0  0  0  0  0  0  0  0  0  0  0  0  0  0
++         0  0  0  0  0  0  0  0  0  0  0  0  0  0  0  0  0
%c cc cc ccc ccc cccc cccc cccc cccc ccccc ccccc ccccc ccccc
%c cc cc ccc ccc cccc cccc cccc cccc ccccc ccccc ccccc ccccc
%f  0.0000000  0.000000000  0.00000000000  0.000000000000000
%f  0.0000000  0.000000000  0.00000000000  0.000000000000000
%i    0    0    0    0      0      0      0      0         0
%i    0    0    0    0      0      0      0      0         0
/*      NGA, ST. LOUIS,MO.                                  
/*   EPHEMERIS COMPUTED FROM 2 DAYS OF DATA                 
/*   EPOCHA v5 SMOOTHER                                     
/*   G2139 IERS2010 SATAF SATAPC                            
*  2021  1 11 14  5  0.00000000
P  1 -13503.086204   8413.882121  20960.822752    781.953313                    
V  1  -2408.832281 -27093.459958   9542.923502     -0.063071                    
P  2  13518.951540  15571.326610 -16076.603841   -564.798147                    
V  2    980.081960  21734.098097  21032.359246     -0.042252                    
P  3 -22992.840054  12770.469347   3208.035451    -53.543739                    
V  3   1996.995322  -4526.664104  31641.600126     -0.098622                    
P  4 -20513.635479   2359.464063 -16729.729461   -171.879608                    
V  4 -17905.023948 -11552.246017  20272.245333     -0.029998                    
P  5  19004.585584   2502.293391 -18614.168727    -30.710953                    
V  5 -18031.019725  14785.206845 -16376.931745     -0.009973                    
P  6   5820.528062  25125.761469  -6181.677190     -4.627902                    
V  6  -1562.303536   8047.538118  30963.168760      0.001081                    
P  7  -7075.947998  22311.163040 -11742.778464     17.576706                    
V  7  -3956.694726 -15420.068052 -26663.115758      0.144652                    
P  8 -24344.057477  -3520.086402  10402.708882     -6.206412                    
V  8 -10977.162712  -7415.236324 -27933.698704     -0.013695                    
P  9 -10181.571853  12051.883155 -21432.027080   -311.599400                    
V  9 -24328.256805 -11927.706115   4843.248386     -0.040640                    
P 10   3344.049000 -18129.037519  19122.629215    -36.798985                    
V 10  20773.864752 -12364.421907 -15697.985375     -0.085175                    
P 11 -17626.569012   -266.220627  19321.410384    -55.972738                    
V 11 -11890.741247 -22969.172092 -11276.230507      0.105853                    
P 12  24071.471001  -8866.252220   6319.067822     14.413490                    
V 12  -6054.802276   6253.599766  30819.666712     -0.052146                    
P 13  22987.466821  13173.413009   2502.620492     84.752278                    
V 13   1396.329998   3923.146424 -31617.140416      0.041404                    
P 14  -6264.429215  18530.756956  17958.747029     83.653673                    
V 14 -20354.134372  10453.618802 -17882.319089      0.064263                    
P 15  24457.065471    464.763339  10422.915944   -177.053978                    
V 15  11835.771994   7584.788297 -26819.124399      0.025938                    
P 16 -18181.827558  -4819.623099 -19165.501208   -263.542384                    
V 16  20318.521664 -12135.203367 -15968.787844     -0.055457                    
P 17   7373.630778  18201.110990  18321.145428    378.865969                    
V 17 -19970.641170 -10050.852534  18451.848130      0.048058                    
P 18   5785.856654 -23917.463658  -9926.923018    340.447933                    
V 18   2960.417838  12489.472022 -28431.917644      0.028605                    
P 19  14435.447161  18599.956259  12092.718644    -53.313889                    
V 19 -14306.704119  -6810.529083  26844.129538      0.049908                    
P 20  13008.756464 -20973.215926   9389.638480    525.212514                    
V 20  11320.451442  -5558.310255 -28188.689582     -0.001646                    
P 21 -15839.666623   -616.369904  22080.424107     85.868723                    
V 21  -3564.853645 -26045.341630  -2995.589081      0.033515                    
P 22 -22684.111412   7343.236337  11726.518370   -700.062945                    
V 22   9397.331529 -11747.142377  26134.323056      0.066420                    
P 23  13605.056733 -19573.675221  11650.520194    115.592269                    
V 23  13469.801108  -6662.778366 -26900.443865      0.016804                    
P 24  15275.939872  -3608.553815  21172.299901      3.818492                    
V 24   4095.153455  27258.198372   2063.246275     -0.005007                    
P 25  18723.788061 -17693.197318  -6081.586548     57.624617                    
V 25   7770.734679  -1812.951964  30718.218580      0.076512                    
P 26  -8947.197679 -12779.577095 -21538.142169     28.330091                    
V 26  22136.831584 -15993.385514    555.279602      0.057000                    
P 27 -23488.996768 -12728.890108  -1650.026931    -53.841983                    
V 27   2569.660071   -962.796561 -31778.432184     -0.077787                    
P 28  -3253.315069  17480.916739  20357.693103    631.148645                    
V 28 -21891.533105  11039.910435 -13175.063263     -0.051529                    
P 29  11595.438217  -9969.223448 -21759.181232   -273.755087                    
V 29  23555.100358  14126.777020   6050.442053     -0.072644                    
P 30    -91.822625  26393.698640  -1529.664057   -367.220497                    
V 30  -3829.881158  -1867.033397 -31280.943845     -0.060749                    
P 31  -7222.982742 -23756.876298  -8816.842558    -93.241286                    
V 31   2593.613053 -11358.854050  29184.253622     -0.023282                    
P 32  -9160.027204 -18019.473648  17402.984929     13.710342                    
V 32  20424.744807   7994.752800  18964.044245      0.020881                    
EOF
